0 CBERS 1 DEB
1 31589U 99057PL  13281.07921043  .00006416  00000-0  18866-2 0  5137
2 31589 098.2366 230.8964 0028461 353.0933 006.9891 14.43797458344085
0 CBERS 1 DEB
1 31589U 99057PL  13283.08895074  .00006547  00000-0  19239-2 0  5145
2 31589 098.2388 232.8496 0028340 349.1193 010.9619 14.43825786344372
0 CBERS 1 DEB
1 31589U 99057PL  13283.64335018  .00006604  00000-0  19420-2 0  5151
2 31589 098.2445 233.3994 0025471 352.3294 007.7786 14.43834220344456
0 CBERS 1 DEB
1 31589U 99057PL  13287.10829212  .00007002  00000-0  20545-2 0  5175
2 31589 098.2364 236.7396 0027506 341.0016 019.0801 14.43888868344953
0 CBERS 1 DEB
1 31589U 99057PL  13289.11789223  .00007681  00000-0  22462-2 0  5189
2 31589 098.2320 238.6741 0032607 333.9894 026.1770 14.43931607345249
0 CBERS 1 DEB
1 31589U 99057PL  13289.67221468  .00007878  00000-0  23059-2 0  5194
2 31589 098.2362 239.2165 0028968 334.6790 025.3901 14.43944606345329
0 CBERS 1 DEB
1 31589U 99057PL  13290.08796595  .00008020  00000-0  23438-2 0  5202
2 31589 098.2304 239.6111 0032295 332.5956 027.3937 14.43954507345387
0 CBERS 1 DEB
1 31589U 99057PL  13292.09747641  .00008349  00000-0  24389-2 0  5214
2 31589 098.2344 241.5596 0030679 325.3236 034.7196 14.43993680345671
0 CBERS 1 DEB
1 31589U 99057PL  13293.06754418  .00008566  00000-0  24995-2 0  5227
2 31589 098.2314 242.4892 0031956 322.2914 037.7029 14.44015392345815
0 CBERS 1 DEB
1 31589U 99057PL  13294.10689287  .00008779  00000-0  25642-2 0  5231
2 31589 098.2376 243.5088 0027775 315.3647 044.6316 14.44037526345967
0 CBERS 1 DEB
1 31589U 99057PL  13295.07693597  .00009845  00000-0  28750-2 0  5246
2 31589 098.2434 244.4657 0023731 311.6703 048.5183 14.44074214346101
